[{"OBJECT_NAME":"STARLINK-4109","OBJECT_ID":"2022-086AC","EPOCH":"2026-03-09T15:42:22.980960","MEAN_MOTION":15.08835634,"ECCENTRICITY":9.968e-5,"INCLINATION":53.2189,"RA_OF_ASC_NODE":194.2802,"ARG_OF_PERICENTER":89.623,"MEAN_ANOMALY":270.4877,"EPHEMERIS_TYPE":0,"CLASSIFICATION_TYPE":"U","NORAD_CAT_ID":53268,"ELEMENT_SET_NO":999,"REV_AT_EPOCH":20106,"BSTAR":3.1059593e-5,"MEAN_MOTION_DOT":2.07e-6,"MEAN_MOTION_DDOT":0},{"OBJECT_NAME":"OBJECT E","OBJECT_ID":"2025-292E","EPOCH":"2026-03-09T23:06:13.350528","MEAN_MOTION":15.05603019,"ECCENTRICITY":0.00142209,"INCLINATION":97.6388,"RA_OF_ASC_NODE":145.6972,"ARG_OF_PERICENTER":344.4497,"MEAN_ANOMALY":15.6291,"EPHEMERIS_TYPE":0,"CLASSIFICATION_TYPE":"U","NORAD_CAT_ID":66997,"ELEMENT_SET_NO":999,"REV_AT_EPOCH":1350,"BSTAR":0.00040225725,"MEAN_MOTION_DOT":5.752e-5,"MEAN_MOTION_DDOT":0}]
